[{"OBJECT_NAME":"STARLINK-32826","OBJECT_ID":"2025-029Y","EPOCH":"2025-12-13T05:29:15.544032","MEAN_MOTION":15.30240361,"ECCENTRICITY":0.00011099,"INCLINATION":53.1579,"RA_OF_ASC_NODE":273.7999,"ARG_OF_PERICENTER":81.0198,"MEAN_ANOMALY":279.0928,"EPHEMERIS_TYPE":0,"CLASSIFICATION_TYPE":"U","NORAD_CAT_ID":62970,"ELEMENT_SET_NO":999,"REV_AT_EPOCH":4808,"BSTAR":0.0025271832,"MEAN_MOTION_DOT":0.00075345,"MEAN_MOTION_DDOT":0},{"OBJECT_NAME":"STARLINK-11543 [DTC]","OBJECT_ID":"2025-031A","EPOCH":"2025-12-13T04:48:06.325344","MEAN_MOTION":15.709487,"ECCENTRICITY":0.000234,"INCLINATION":42.9997,"RA_OF_ASC_NODE":162.4529,"ARG_OF_PERICENTER":21.9995,"MEAN_ANOMALY":338.0973,"EPHEMERIS_TYPE":0,"CLASSIFICATION_TYPE":"U","NORAD_CAT_ID":62981,"ELEMENT_SET_NO":999,"REV_AT_EPOCH":4914,"BSTAR":0.0024091139,"MEAN_MOTION_DOT":0.00322441,"MEAN_MOTION_DDOT":0},{"OBJECT_NAME":"STARLINK-11458 [DTC]","OBJECT_ID":"2025-031B","EPOCH":"2025-12-13T05:11:01.625856","MEAN_MOTION":15.70842803,"ECCENTRICITY":0.00016646,"INCLINATION":43.0015,"RA_OF_ASC_NODE":162.5796,"ARG_OF_PERICENTER":301.3642,"MEAN_ANOMALY":58.7063,"EPHEMERIS_TYPE":0,"CLASSIFICATION_TYPE":"U","NORAD_CAT_ID":62982,"ELEMENT_SET_NO":999,"REV_AT_EPOCH":4914,"BSTAR":0.00015546789,"MEAN_MOTION_DOT":0.00019549,"MEAN_MOTION_DDOT":0},{"OBJECT_NAME":"STARLINK-11417 [DTC]","OBJECT_ID":"2025-031C","EPOCH":"2025-12-13T04:32:59.380224","MEAN_MOTION":15.70942172,"ECCENTRICITY":0.00010204,"INCLINATION":42.9988,"RA_OF_ASC_NODE":163.2621,"ARG_OF_PERICENTER":312.6697,"MEAN_ANOMALY":47.4084,"EPHEMERIS_TYPE":0,"CLASSIFICATION_TYPE":"U","NORAD_CAT_ID":62983,"ELEMENT_SET_NO":999,"REV_AT_EPOCH":4913,"BSTAR":0.0022087432,"MEAN_MOTION_DOT":0.00294503,"MEAN_MOTION_DDOT":0},{"OBJECT_NAME":"STARLINK-11544 [DTC]","OBJECT_ID":"2025-031D","EPOCH":"2025-12-13T05:03:24.579360","MEAN_MOTION":15.70875521,"ECCENTRICITY":0.00016061,"INCLINATION":43.0002,"RA_OF_ASC_NODE":162.537,"ARG_OF_PERICENTER":328.9177,"MEAN_ANOMALY":31.1595,"EPHEMERIS_TYPE":0,"CLASSIFICATION_TYPE":"U","NORAD_CAT_ID":62984,"ELEMENT_SET_NO":999,"REV_AT_EPOCH":4911,"BSTAR":0.0025120868,"MEAN_MOTION_DOT":0.00335754,"MEAN_MOTION_DDOT":0},{"OBJECT_NAME":"STARLINK-11582 [DTC]","OBJECT_ID":"2025-031E","EPOCH":"2025-12-12T21:48:30.976704","MEAN_MOTION":15.70892324,"ECCENTRICITY":0.0001728,"INCLINATION":43.0003,"RA_OF_ASC_NODE":164.5818,"ARG_OF_PERICENTER":265.4957,"MEAN_ANOMALY":94.5713,"EPHEMERIS_TYPE":0,"CLASSIFICATION_TYPE":"U","NORAD_CAT_ID":62985,"ELEMENT_SET_NO":999,"REV_AT_EPOCH":4909,"BSTAR":0.0010165206,"MEAN_MOTION_DOT":0.00132374,"MEAN_MOTION_DDOT":0},{"OBJECT_NAME":"STARLINK-11571 [DTC]","OBJECT_ID":"2025-031F","EPOCH":"2025-12-13T04:40:27.059232","MEAN_MOTION":15.70980296,"ECCENTRICITY":7.686e-5,"INCLINATION":42.9987,"RA_OF_ASC_NODE":162.4084,"ARG_OF_PERICENTER":324.5397,"MEAN_ANOMALY":35.5419,"EPHEMERIS_TYPE":0,"CLASSIFICATION_TYPE":"U","NORAD_CAT_ID":62986,"ELEMENT_SET_NO":999,"REV_AT_EPOCH":4914,"BSTAR":0.0026731235,"MEAN_MOTION_DOT":0.00359959,"MEAN_MOTION_DDOT":0},{"OBJECT_NAME":"STARLINK-11539 [DTC]","OBJECT_ID":"2025-031G","EPOCH":"2025-12-12T21:40:52.796640","MEAN_MOTION":15.70986366,"ECCENTRICITY":0.00019186,"INCLINATION":43.0001,"RA_OF_ASC_NODE":164.5381,"ARG_OF_PERICENTER":248.638,"MEAN_ANOMALY":111.4284,"EPHEMERIS_TYPE":0,"CLASSIFICATION_TYPE":"U","NORAD_CAT_ID":62987,"ELEMENT_SET_NO":999,"REV_AT_EPOCH":4909,"BSTAR":0.00097882531,"MEAN_MOTION_DOT":0.00127886,"MEAN_MOTION_DDOT":0},{"OBJECT_NAME":"STARLINK-11542 [DTC]","OBJECT_ID":"2025-031H","EPOCH":"2025-12-13T04:55:44.454432","MEAN_MOTION":15.70973454,"ECCENTRICITY":9.71e-5,"INCLINATION":42.9999,"RA_OF_ASC_NODE":162.4923,"ARG_OF_PERICENTER":280.5099,"MEAN_ANOMALY":79.5659,"EPHEMERIS_TYPE":0,"CLASSIFICATION_TYPE":"U","NORAD_CAT_ID":62988,"ELEMENT_SET_NO":999,"REV_AT_EPOCH":4911,"BSTAR":0.002970971,"MEAN_MOTION_DOT":0.00402062,"MEAN_MOTION_DDOT":0},{"OBJECT_NAME":"STARLINK-11573 [DTC]","OBJECT_ID":"2025-031J","EPOCH":"2025-12-12T22:03:48.885984","MEAN_MOTION":15.70923401,"ECCENTRICITY":0.00017205,"INCLINATION":43.0004,"RA_OF_ASC_NODE":164.6649,"ARG_OF_PERICENTER":297.9859,"MEAN_ANOMALY":62.0834,"EPHEMERIS_TYPE":0,"CLASSIFICATION_TYPE":"U","NORAD_CAT_ID":62989,"ELEMENT_SET_NO":999,"REV_AT_EPOCH":4906,"BSTAR":0.0016251955,"MEAN_MOTION_DOT":0.00214301,"MEAN_MOTION_DDOT":0},{"OBJECT_NAME":"STARLINK-11572 [DTC]","OBJECT_ID":"2025-031K","EPOCH":"2025-12-13T05:04:41.554848","MEAN_MOTION":15.7098935,"ECCENTRICITY":0.00015299,"INCLINATION":42.9994,"RA_OF_ASC_NODE":162.5411,"ARG_OF_PERICENTER":321.789,"MEAN_ANOMALY":38.2869,"EPHEMERIS_TYPE":0,"CLASSIFICATION_TYPE":"U","NORAD_CAT_ID":62990,"ELEMENT_SET_NO":999,"REV_AT_EPOCH":4914,"BSTAR":0.0030323312,"MEAN_MOTION_DOT":0.00411087,"MEAN_MOTION_DDOT":0},{"OBJECT_NAME":"STARLINK-11583 [DTC]","OBJECT_ID":"2025-031L","EPOCH":"2025-12-12T22:11:27.269088","MEAN_MOTION":15.70977825,"ECCENTRICITY":0.00020133,"INCLINATION":42.9996,"RA_OF_ASC_NODE":164.7061,"ARG_OF_PERICENTER":288.4479,"MEAN_ANOMALY":71.617,"EPHEMERIS_TYPE":0,"CLASSIFICATION_TYPE":"U","NORAD_CAT_ID":62991,"ELEMENT_SET_NO":999,"REV_AT_EPOCH":4910,"BSTAR":0.0022555732,"MEAN_MOTION_DOT":0.00301458,"MEAN_MOTION_DDOT":0},{"OBJECT_NAME":"STARLINK-11570 [DTC]","OBJECT_ID":"2025-031M","EPOCH":"2025-12-12T22:19:05.759328","MEAN_MOTION":15.70916565,"ECCENTRICITY":0.00023852,"INCLINATION":43.0009,"RA_OF_ASC_NODE":164.7497,"ARG_OF_PERICENTER":277.6087,"MEAN_ANOMALY":82.451,"EPHEMERIS_TYPE":0,"CLASSIFICATION_TYPE":"U","NORAD_CAT_ID":62992,"ELEMENT_SET_NO":999,"REV_AT_EPOCH":4908,"BSTAR":0.0012621645,"MEAN_MOTION_DOT":0.00165303,"MEAN_MOTION_DDOT":0},{"OBJECT_NAME":"STARLINK-11576 [DTC]","OBJECT_ID":"2025-031N","EPOCH":"2025-12-12T20:24:36.627552","MEAN_MOTION":15.70970182,"ECCENTRICITY":0.00020973,"INCLINATION":43.0002,"RA_OF_ASC_NODE":165.0032,"ARG_OF_PERICENTER":280.5875,"MEAN_ANOMALY":79.4756,"EPHEMERIS_TYPE":0,"CLASSIFICATION_TYPE":"U","NORAD_CAT_ID":62993,"ELEMENT_SET_NO":999,"REV_AT_EPOCH":4907,"BSTAR":0.0025029892,"MEAN_MOTION_DOT":0.00335872,"MEAN_MOTION_DDOT":0},{"OBJECT_NAME":"STARLINK-32899","OBJECT_ID":"2025-031P","EPOCH":"2025-12-13T04:51:07.684128","MEAN_MOTION":15.27633894,"ECCENTRICITY":0.00012591,"INCLINATION":42.9991,"RA_OF_ASC_NODE":272.1647,"ARG_OF_PERICENTER":278.5847,"MEAN_ANOMALY":81.4862,"EPHEMERIS_TYPE":0,"CLASSIFICATION_TYPE":"U","NORAD_CAT_ID":62994,"ELEMENT_SET_NO":999,"REV_AT_EPOCH":4786,"BSTAR":0.0018694976,"MEAN_MOTION_DOT":0.00051628,"MEAN_MOTION_DDOT":0},{"OBJECT_NAME":"STARLINK-32819","OBJECT_ID":"2025-031Q","EPOCH":"2025-12-13T04:03:00.984960","MEAN_MOTION":15.27635791,"ECCENTRICITY":8.968e-5,"INCLINATION":42.9986,"RA_OF_ASC_NODE":271.9047,"ARG_OF_PERICENTER":263.6468,"MEAN_ANOMALY":96.4282,"EPHEMERIS_TYPE":0,"CLASSIFICATION_TYPE":"U","NORAD_CAT_ID":62995,"ELEMENT_SET_NO":999,"REV_AT_EPOCH":4786,"BSTAR":0.0015483543,"MEAN_MOTION_DOT":0.00042665,"MEAN_MOTION_DDOT":0}]
