STARLINK-32826          
1 62970U 25029Y   25347.22865213  .00075345  00000+0  25272-2 0  9995
2 62970  53.1579 273.7999 0001109  81.0198 279.0928 15.30240361 48082
STARLINK-11543 [DTC]    
1 62981U 25031A   25347.20007321  .00322441  00000+0  24091-2 0  9996
2 62981  42.9997 162.4529 0002340  21.9995 338.0973 15.70948700 49143
STARLINK-11458 [DTC]    
1 62982U 25031B   25347.21599104  .00019549  00000+0  15547-3 0  9992
2 62982  43.0015 162.5796 0001664 301.3642  58.7063 15.70842803 49149
STARLINK-11417 [DTC]    
1 62983U 25031C   25347.18957616  .00294503  00000+0  22087-2 0  9996
2 62983  42.9988 163.2621 0001020 312.6697  47.4084 15.70942172 49130
STARLINK-11544 [DTC]    
1 62984U 25031D   25347.21070115  .00335754  00000+0  25121-2 0  9997
2 62984  43.0002 162.5370 0001606 328.9177  31.1595 15.70875521 49114
STARLINK-11582 [DTC]    
1 62985U 25031E   25346.90869186  .00132374  00000+0  10165-2 0  9992
2 62985  43.0003 164.5818 0001728 265.4957  94.5713 15.70892324 49093
STARLINK-11571 [DTC]    
1 62986U 25031F   25347.19475763  .00359959  00000+0  26731-2 0  9995
2 62986  42.9987 162.4084 0000768 324.5397  35.5419 15.70980296 49143
STARLINK-11539 [DTC]    
1 62987U 25031G   25346.90338885  .00127886  00000+0  97883-3 0  9996
2 62987  43.0001 164.5381 0001918 248.6380 111.4284 15.70986366 49094
STARLINK-11542 [DTC]    
1 62988U 25031H   25347.20537563  .00402062  00000+0  29710-2 0  9990
2 62988  42.9999 162.4923 0000971 280.5099  79.5659 15.70973454 49115
STARLINK-11573 [DTC]    
1 62989U 25031J   25346.91931581  .00214301  00000+0  16252-2 0  9990
2 62989  43.0004 164.6649 0001720 297.9859  62.0834 15.70923401 49066
STARLINK-11572 [DTC]    
1 62990U 25031K   25347.21159207  .00411087  00000+0  30323-2 0  9998
2 62990  42.9994 162.5411 0001529 321.7890  38.2869 15.70989350 49143
STARLINK-11583 [DTC]    
1 62991U 25031L   25346.92462117  .00301458  00000+0  22556-2 0  9992
2 62991  42.9996 164.7061 0002013 288.4479  71.6170 15.70977825 49108
STARLINK-11570 [DTC]    
1 62992U 25031M   25346.92992777  .00165303  00000+0  12622-2 0  9993
2 62992  43.0009 164.7497 0002385 277.6087  82.4510 15.70916565 49085
STARLINK-11576 [DTC]    
1 62993U 25031N   25346.85042393  .00335872  00000+0  25030-2 0  9993
2 62993  43.0002 165.0032 0002097 280.5875  79.4756 15.70970182 49078
STARLINK-32899          
1 62994U 25031P   25347.20217227  .00051628  00000+0  18695-2 0  9997
2 62994  42.9991 272.1647 0001259 278.5847  81.4862 15.27633894 47865
STARLINK-32819          
1 62995U 25031Q   25347.16876140  .00042665  00000+0  15484-2 0  9992
2 62995  42.9986 271.9047 0000896 263.6468  96.4282 15.27635791 47861
